{
    "type": "FeatureCollection",
    "features": [
        {
            "type": "Feature",
            "geometry": {
                "type": "Point",
                "coordinates": [
                    4.351374969449478,
                    50.82414087351911
                ]
            },
            "properties": {
                "denomination": "Projecta asbl - Avila diffusion",
                "adresse": "Chauss\u00e9e de waterloo 37",
                "code_postal": "1060",
                "ville": "Saint-Gilles",
                "telephone": null,
                "courriel": "contact@avilafilm.be",
                "site_web": "https:\/\/avilafilm.be\/fr",
                "statut_juridique": "asbl",
                "province": "Bruxelles-Capitale",
                "bassin_de_vie_fwb": "Bruxelles",
                "categorie": "Structure de diffusion",
                "bce": "0597.875.039",
                "commentaires": "Gestionnaira d'Avila Diffusion"
            }
        },
        {
            "type": "Feature",
            "geometry": {
                "type": "Point",
                "coordinates": [
                    4.3792110269869475,
                    50.816421900830406
                ]
            },
            "properties": {
                "denomination": "Un soir\u2026 un grain\/BSFF",
                "adresse": "Avenue Maurice 1",
                "code_postal": "1050",
                "ville": "Ixelles",
                "telephone": "02 248 08 72",
                "courriel": "info@bsff.be",
                "site_web": "https:\/\/bsff.be\/",
                "statut_juridique": "asbl",
                "province": "Bruxelles-Capitale",
                "bassin_de_vie_fwb": "Bruxelles",
                "categorie": "Organisateur de festival",
                "bce": "0466.196.549",
                "commentaires": "Organisateur du Brussels Short Film Festival"
            }
        },
        {
            "type": "Feature",
            "geometry": {
                "type": "Point",
                "coordinates": [
                    4.352275713495851,
                    50.84877225690482
                ]
            },
            "properties": {
                "denomination": "Arbemax sprl - Cin\u00e9ma Aventure",
                "adresse": "Galerie du centre 57",
                "code_postal": "1000",
                "ville": "Bruxelles",
                "telephone": "02 219 92 02",
                "courriel": "info@cinema-aventure.be",
                "site_web": "http:\/\/cinema-aventure.be\/",
                "statut_juridique": "scrl",
                "province": "Bruxelles-Capitale",
                "bassin_de_vie_fwb": "Bruxelles",
                "categorie": "Exploitant de salles",
                "bce": "0893.553.904",
                "commentaires": "Gestionnaire"
            }
        },
        {
            "type": "Feature",
            "geometry": {
                "type": "Point",
                "coordinates": [
                    4.3447954822067745,
                    50.8723235862011
                ]
            },
            "properties": {
                "denomination": "Atelier Graphoui",
                "adresse": "Boulevard Emile Bockstael 88",
                "code_postal": "1020",
                "ville": "Laeken",
                "telephone": "02 537 23 74",
                "courriel": "info@graphoui.org",
                "site_web": "https:\/\/graphoui.org\/",
                "statut_juridique": "asbl",
                "province": "Bruxelles-Capitale",
                "bassin_de_vie_fwb": "Bruxelles",
                "categorie": "Atelier de production",
                "bce": "0419.497.581",
                "commentaires": null
            }
        },
        {
            "type": "Feature",
            "geometry": {
                "type": "Point",
                "coordinates": [
                    5.568365502322316,
                    50.64366061503523
                ]
            },
            "properties": {
                "denomination": "Cin\u00e9ma Sauveni\u00e8re",
                "adresse": "Place Xavier Neujean 14",
                "code_postal": "4000",
                "ville": "Li\u00e8ge",
                "telephone": "04 222 27 78",
                "courriel": "contact@grignoux.be",
                "site_web": "https:\/\/www.grignoux.be\/fr\/",
                "statut_juridique": "filiale",
                "province": "Li\u00e8ge",
                "bassin_de_vie_fwb": "Li\u00e8ge",
                "categorie": "Exploitant de salles",
                "bce": "0419.172.434",
                "commentaires": "Salle g\u00e9r\u00e9e par Les Grignoux"
            }
        },
        {
            "type": "Feature",
            "geometry": {
                "type": "Point",
                "coordinates": [
                    4.863835728824586,
                    50.46690999203061
                ]
            },
            "properties": {
                "denomination": "Le Cam\u00e9o",
                "adresse": "Rue des Carmes 49",
                "code_postal": "5000",
                "ville": "Namur",
                "telephone": "04 222 27 78",
                "courriel": "contact@grignoux.be",
                "site_web": "https:\/\/www.grignoux.be\/fr\/",
                "statut_juridique": "filiale",
                "province": "Namur",
                "bassin_de_vie_fwb": "Namur",
                "categorie": "Exploitant de salles",
                "bce": "0419.172.434",
                "commentaires": "Salle g\u00e9r\u00e9e par Les Grignoux"
            }
        },
        {
            "type": "Feature",
            "geometry": {
                "type": "Point",
                "coordinates": [
                    4.333245869314231,
                    50.79251275932258
                ]
            },
            "properties": {
                "denomination": "Imagine Film Distribution",
                "adresse": "Chauss\u00e9e d'Alsemberg 980",
                "code_postal": "1180",
                "ville": "Uccle",
                "telephone": "02 331 64 31",
                "courriel": "info@imaginefilm.be",
                "site_web": "https:\/\/www.imaginefilm.be\/fr\/",
                "statut_juridique": "sa",
                "province": "Bruxelles-Capitale",
                "bassin_de_vie_fwb": "Bruxelles",
                "categorie": "Distributeur de films",
                "bce": "0477.207.633",
                "commentaires": null
            }
        },
        {
            "type": "Feature",
            "geometry": {
                "type": "Point",
                "coordinates": [
                    3.9534162539576316,
                    50.45549468830482
                ]
            },
            "properties": {
                "denomination": "Festival International du Film de Mons",
                "adresse": "Rue de Nimy 12",
                "code_postal": "7000",
                "ville": "Mons",
                "telephone": "064 31 28 19",
                "courriel": "secretariat.festivaldemons@hotmail.com",
                "site_web": "https:\/\/www.liff-mons.be\/fr\/accueil\/",
                "statut_juridique": "asbl",
                "province": "Hainaut",
                "bassin_de_vie_fwb": "Hainaut Centre",
                "categorie": "Organisateur de festival",
                "bce": "0430.315.853",
                "commentaires": null
            }
        },
        {
            "type": "Feature",
            "geometry": {
                "type": "Point",
                "coordinates": [
                    4.361030540480189,
                    50.83971920877747
                ]
            },
            "properties": {
                "denomination": "Cin\u00e9art",
                "adresse": "Rue de Namur 72-74",
                "code_postal": "1000",
                "ville": "Bruxelles",
                "telephone": "02 245 87 00",
                "courriel": "info@cineart.be",
                "site_web": "https:\/\/www.cineart.be\/fr",
                "statut_juridique": "sa",
                "province": "Bruxelles-Capitale",
                "bassin_de_vie_fwb": "Bruxelles",
                "categorie": "Distributeur de films",
                "bce": "0464.119.858",
                "commentaires": null
            }
        },
        {
            "type": "Feature",
            "geometry": {
                "type": "Point",
                "coordinates": [
                    3.387309426979114,
                    50.61510931885153
                ]
            },
            "properties": {
                "denomination": "Tournai Ramdam Festival",
                "adresse": "Boulevard Delwart 60",
                "code_postal": "7500",
                "ville": "Tournai",
                "telephone": "0475 64 90 26",
                "courriel": "info@ramdamfestival.be",
                "site_web": "https:\/\/www.ramdamfestival.be\/",
                "statut_juridique": "asbl",
                "province": "Hainaut",
                "bassin_de_vie_fwb": "Wallonie picarde",
                "categorie": "Organisateur de festival",
                "bce": "0830.412.941",
                "commentaires": "Organisateur du Ramdam Festival, Le Festival du Film qui d\u00e9range"
            }
        },
        {
            "type": "Feature",
            "geometry": {
                "type": "Point",
                "coordinates": [
                    4.3366816981516365,
                    50.83139158377618
                ]
            },
            "properties": {
                "denomination": "68 Septante",
                "adresse": "Rue \u00c9mile F\u00e9ron 106",
                "code_postal": "1060",
                "ville": "Saint-Gilles",
                "telephone": "02 888 66 02",
                "courriel": "info@6870.be",
                "site_web": "https:\/\/www.6870.be\/",
                "statut_juridique": "asbl",
                "province": "Bruxelles-Capitale",
                "bassin_de_vie_fwb": "Bruxelles",
                "categorie": "Structure de diffusion",
                "bce": "0862.383.448",
                "commentaires": "Structure de diffusion La vid\u00e9oth\u00e8que nomade"
            }
        },
        {
            "type": "Feature",
            "geometry": {
                "type": "Point",
                "coordinates": [
                    4.369858373436811,
                    50.84683747277819
                ]
            },
            "properties": {
                "denomination": "Centre de l'Audiovisuel \u00e0 Bruxelles (CBA)",
                "adresse": "Avenue des Arts 19F",
                "code_postal": "1000",
                "ville": "Bruxelles",
                "telephone": "02 227 22 30",
                "courriel": "mail@cbadoc.be",
                "site_web": "https:\/\/cbadoc.be\/fr\/",
                "statut_juridique": "asbl",
                "province": "Bruxelles-Capitale",
                "bassin_de_vie_fwb": "Bruxelles",
                "categorie": "Atelier d'accueil",
                "bce": "0419.301.702",
                "commentaires": null
            }
        },
        {
            "type": "Feature",
            "geometry": {
                "type": "Point",
                "coordinates": [
                    3.9532691693011377,
                    50.45434106815756
                ]
            },
            "properties": {
                "denomination": "Le Palace",
                "adresse": "Rue Borgval 19-23",
                "code_postal": "1000",
                "ville": "Bruxelles",
                "telephone": "02 514 52 97",
                "courriel": "info@cinema-palace.be",
                "site_web": "https:\/\/www.cinema-palace.be\/fr",
                "statut_juridique": "asbl",
                "province": "Bruxelles-Capitale",
                "bassin_de_vie_fwb": "Bruxelles",
                "categorie": "Exploitant de salles",
                "bce": "0879.085.066",
                "commentaires": null
            }
        },
        {
            "type": "Feature",
            "geometry": {
                "type": "Point",
                "coordinates": [
                    4.347095211778823,
                    50.81450724098774
                ]
            },
            "properties": {
                "denomination": "Zin TV",
                "adresse": "Avenue Albert 285",
                "code_postal": "1190",
                "ville": "Forest",
                "telephone": null,
                "courriel": "contact@zintv.org",
                "site_web": "https:\/\/zintv.org\/",
                "statut_juridique": "asbl",
                "province": "Bruxelles-Capitale",
                "bassin_de_vie_fwb": "Bruxelles",
                "categorie": "Atelier de production",
                "bce": "0818.979.116",
                "commentaires": null
            }
        },
        {
            "type": "Feature",
            "geometry": {
                "type": "Point",
                "coordinates": [
                    4.861670726973214,
                    50.462398554879634
                ]
            },
            "properties": {
                "denomination": "Festival international du film francophone de Namur (FIFF)",
                "adresse": "Rue des Brasseurs 175",
                "code_postal": "5000",
                "ville": "Namur",
                "telephone": "081 24 12 36",
                "courriel": "info@fiff.be",
                "site_web": "https:\/\/www.fiff.be\/",
                "statut_juridique": "asbl",
                "province": "Namur",
                "bassin_de_vie_fwb": "Namur",
                "categorie": "Organisateur de festival",
                "bce": "0429.675.950",
                "commentaires": null
            }
        },
        {
            "type": "Feature",
            "geometry": {
                "type": "Point",
                "coordinates": [
                    4.3792110269869475,
                    50.816421900830406
                ]
            },
            "properties": {
                "denomination": "Un soir\u2026 un grain\/BRIFF",
                "adresse": "Avenue Maurice 1",
                "code_postal": "1050",
                "ville": "Ixelles",
                "telephone": "02 248 08 72",
                "courriel": "info@briff.be",
                "site_web": "https:\/\/briff.be\/",
                "statut_juridique": "asbl",
                "province": "Bruxelles-Capitale",
                "bassin_de_vie_fwb": "Bruxelles",
                "categorie": "Organisateur de festival",
                "bce": "0466.196.549",
                "commentaires": "Organisateur du Brussels International Film Festival"
            }
        },
        {
            "type": "Feature",
            "geometry": {
                "type": "Point",
                "coordinates": [
                    4.356503527102752,
                    50.84846748818867
                ]
            },
            "properties": {
                "denomination": "Nova asbl",
                "adresse": "Rue d'Arenberg 14",
                "code_postal": "1000",
                "ville": "Bruxelles",
                "telephone": "02 511 24 77",
                "courriel": "nova@nova-cinema.org",
                "site_web": "https:\/\/www.nova-cinema.org\/",
                "statut_juridique": "asbl",
                "province": "Bruxelles-Capitale",
                "bassin_de_vie_fwb": "Bruxelles",
                "categorie": "Exploitant de salles",
                "bce": "0459.652.514",
                "commentaires": "Gestionnaire du cin\u00e9ma Nova"
            }
        },
        {
            "type": "Feature",
            "geometry": {
                "type": "Point",
                "coordinates": [
                    4.367757057056192,
                    50.85950331483172
                ]
            },
            "properties": {
                "denomination": "Centre Vid\u00e9o de Bruxelles (CVB)",
                "adresse": "Rue de la Poste 111",
                "code_postal": "1030",
                "ville": "Schaerbeek",
                "telephone": "02 221 10 50",
                "courriel": "info@cvb.be",
                "site_web": "https:\/\/cvb.be\/fr",
                "statut_juridique": "asbl",
                "province": "Bruxelles-Capitale",
                "bassin_de_vie_fwb": "Bruxelles",
                "categorie": "Atelier de production",
                "bce": "0429.300.422",
                "commentaires": null
            }
        },
        {
            "type": "Feature",
            "geometry": {
                "type": "Point",
                "coordinates": [
                    4.692468598137155,
                    50.45778575870737
                ]
            },
            "properties": {
                "denomination": "Comit\u00e9 Culturel Gabrielle Bernard",
                "adresse": "Rue de la Fabrique 4C",
                "code_postal": "5190",
                "ville": "Moustier-sur-Sambre",
                "telephone": "071 72 63 39",
                "courriel": "info@cinemabelge.be",
                "site_web": "http:\/\/www.cinemabelge.be\/",
                "statut_juridique": "asbl",
                "province": "Namur",
                "bassin_de_vie_fwb": "Namur",
                "categorie": "Organisateur de festival",
                "bce": "0416.424.661",
                "commentaires": "Organisateur du Festival du cin\u00e9ma belge de Moustier"
            }
        },
        {
            "type": "Feature",
            "geometry": {
                "type": "Point",
                "coordinates": [
                    4.324980298284321,
                    50.812620345369176
                ]
            },
            "properties": {
                "denomination": "Freyja - Empreintes\/Les Toiles",
                "adresse": "Avenue Zaman 20",
                "code_postal": "1190",
                "ville": "Forest",
                "telephone": null,
                "courriel": "info@empreintes.cool",
                "site_web": "https:\/\/www.empreintes.cool\/les-toiles",
                "statut_juridique": "asbl",
                "province": "Bruxelles-Capitale",
                "bassin_de_vie_fwb": "Bruxelles",
                "categorie": "Structure de diffusion",
                "bce": "0743.397.706",
                "commentaires": null
            }
        },
        {
            "type": "Feature",
            "geometry": {
                "type": "Point",
                "coordinates": [
                    4.369126971167796,
                    50.853386270296845
                ]
            },
            "properties": {
                "denomination": "Elles tournent",
                "adresse": "Rue du M\u00e9ridien 10",
                "code_postal": "1210",
                "ville": "Saint-Josse-ten-Noode",
                "telephone": "02 229 38 09",
                "courriel": "info@ellestournent.be",
                "site_web": "http:\/\/ellestournent-damesdraaien.org\/",
                "statut_juridique": "asbl",
                "province": "Bruxelles-Capitale",
                "bassin_de_vie_fwb": "Bruxelles",
                "categorie": "Organisateur de festival",
                "bce": "0818.475.706",
                "commentaires": null
            }
        },
        {
            "type": "Feature",
            "geometry": {
                "type": "Point",
                "coordinates": [
                    5.573725184651889,
                    50.64024483281379
                ]
            },
            "properties": {
                "denomination": "Les Grignoux",
                "adresse": "Rue S\u0153urs de Hasque 9",
                "code_postal": "4000",
                "ville": "Li\u00e8ge",
                "telephone": "04 222 27 78",
                "courriel": "contact@grignoux.be",
                "site_web": "https:\/\/www.grignoux.be\/fr\/",
                "statut_juridique": "asbl",
                "province": "Li\u00e8ge",
                "bassin_de_vie_fwb": "Li\u00e8ge",
                "categorie": "Exploitant de salles",
                "bce": "0419.172.434",
                "commentaires": "Gestionnaire des cin\u00e9mas Le Parc, Churchill, Sauveni\u00e8re et Cam\u00e9o Namur"
            }
        },
        {
            "type": "Feature",
            "geometry": {
                "type": "Point",
                "coordinates": [
                    5.570331555816018,
                    50.64129645458255
                ]
            },
            "properties": {
                "denomination": "Le Churchill",
                "adresse": "Rue du Mouton Blanc 20",
                "code_postal": "4000",
                "ville": "Li\u00e8ge",
                "telephone": "04 222 27 78",
                "courriel": "contact@grignoux.be",
                "site_web": "https:\/\/www.grignoux.be\/fr\/",
                "statut_juridique": "filiale",
                "province": "Li\u00e8ge",
                "bassin_de_vie_fwb": "Li\u00e8ge",
                "categorie": "Exploitant de salles",
                "bce": "0419.172.434",
                "commentaires": "Salle g\u00e9r\u00e9e par Les Grignoux"
            }
        },
        {
            "type": "Feature",
            "geometry": {
                "type": "Point",
                "coordinates": [
                    4.349441498152216,
                    50.84651108926506
                ]
            },
            "properties": {
                "denomination": "Genres d'\u00e0 C\u00f4t\u00e9",
                "adresse": "Rue du March\u00e9 au charbon 42",
                "code_postal": "1000",
                "ville": "Bruxelles",
                "telephone": null,
                "courriel": "info@gdac.org",
                "site_web": "https:\/\/pinkscreens.org\/fr",
                "statut_juridique": "asbl",
                "province": "Bruxelles-Capitale",
                "bassin_de_vie_fwb": "Bruxelles",
                "categorie": "Organisateur de festival",
                "bce": "0474.996.924",
                "commentaires": "Organisateur du Festival Pink Screens"
            }
        },
        {
            "type": "Feature",
            "geometry": {
                "type": "Point",
                "coordinates": [
                    5.58661631163628,
                    50.63323437675789
                ]
            },
            "properties": {
                "denomination": "D\u00e9rives",
                "adresse": "Rue de Mulhouse 36",
                "code_postal": "4020",
                "ville": "Li\u00e8ge",
                "telephone": "04 342 49 39",
                "courriel": "info@derives.be",
                "site_web": "https:\/\/www.derives.be\/",
                "statut_juridique": "asbl",
                "province": "Li\u00e8ge",
                "bassin_de_vie_fwb": "Li\u00e8ge",
                "categorie": "Atelier de production",
                "bce": "0415.552.156",
                "commentaires": null
            }
        },
        {
            "type": "Feature",
            "geometry": {
                "type": "Point",
                "coordinates": [
                    5.60244409814448,
                    50.64634713745985
                ]
            },
            "properties": {
                "denomination": "Cin\u00e9ma Le Parc",
                "adresse": "Rue Paul Joseph Carpay 22",
                "code_postal": "4020",
                "ville": "Li\u00e8ge",
                "telephone": "04 222 27 78",
                "courriel": "contact@grignoux.be",
                "site_web": "https:\/\/www.grignoux.be\/fr\/",
                "statut_juridique": "filiale",
                "province": "Li\u00e8ge",
                "bassin_de_vie_fwb": "Li\u00e8ge",
                "categorie": "Exploitant de salles",
                "bce": "0419.172.434",
                "commentaires": "Salle g\u00e9r\u00e9e par Les Grignoux"
            }
        },
        {
            "type": "Feature",
            "geometry": {
                "type": "Point",
                "coordinates": [
                    4.342203898152057,
                    50.84233225116993
                ]
            },
            "properties": {
                "denomination": "Filem'on",
                "adresse": "Rue de la Caserne 33",
                "code_postal": "1000",
                "ville": "Bruxelles",
                "telephone": null,
                "courriel": "filemon08@gmail.com",
                "site_web": "https:\/\/filemon.be\/fr\/",
                "statut_juridique": "asbl",
                "province": "Bruxelles-Capitale",
                "bassin_de_vie_fwb": "Bruxelles",
                "categorie": "Organisateur de festival",
                "bce": "0807.088.302",
                "commentaires": null
            }
        },
        {
            "type": "Feature",
            "geometry": {
                "type": "Point",
                "coordinates": [
                    4.416075540613636,
                    50.80070314963754
                ]
            },
            "properties": {
                "denomination": "Extra&Ordinary People",
                "adresse": "Rue des Trois Tilleuls 57",
                "code_postal": "1170",
                "ville": "Watermael-Boitsfort",
                "telephone": null,
                "courriel": "eop@skynet.be",
                "site_web": "https:\/\/teff.be\/",
                "statut_juridique": "asbl",
                "province": "Bruxelles-Capitale",
                "bassin_de_vie_fwb": "Bruxelles",
                "categorie": "Organisateur de festival",
                "bce": "0831.049.775",
                "commentaires": "Organisateur du Festival TEFF"
            }
        },
        {
            "type": "Feature",
            "geometry": {
                "type": "Point",
                "coordinates": [
                    4.325255397673827,
                    50.81948395120181
                ]
            },
            "properties": {
                "denomination": "Zorobabel",
                "adresse": "Avenue Van Volxem 200",
                "code_postal": "1190",
                "ville": "Forest",
                "telephone": "02 538 24 34",
                "courriel": "zorobabel@zorobabel.be",
                "site_web": "https:\/\/zorobabel.be\/",
                "statut_juridique": "asbl",
                "province": "Bruxelles-Capitale",
                "bassin_de_vie_fwb": "Bruxelles",
                "categorie": "Atelier de production",
                "bce": "0453.368.991",
                "commentaires": null
            }
        },
        {
            "type": "Feature",
            "geometry": {
                "type": "Point",
                "coordinates": [
                    4.371698311167169,
                    50.847358538663045
                ]
            },
            "properties": {
                "denomination": "Groupe socialiste d'Action et de R\u00e9flexion sur l'Audiovisuel (GSARA)",
                "adresse": "Rue du Marteau 26",
                "code_postal": "1210",
                "ville": "Saint-Josse-ten-Noode",
                "telephone": "02 218 58 85",
                "courriel": "info@gsara.be",
                "site_web": "https:\/\/gsara.be\/atelier-production\/",
                "statut_juridique": "asbl",
                "province": "Bruxelles-Capitale",
                "bassin_de_vie_fwb": "Bruxelles",
                "categorie": "Atelier de production",
                "bce": "0418.141.759",
                "commentaires": null
            }
        },
        {
            "type": "Feature",
            "geometry": {
                "type": "Point",
                "coordinates": [
                    4.612176513489153,
                    50.676106662050294
                ]
            },
            "properties": {
                "denomination": "Mediadiffusion",
                "adresse": "Avenue Ath\u00e9na 4",
                "code_postal": "1348",
                "ville": "Louvain-la-neuve",
                "telephone": "010 33 02 26",
                "courriel": "diffusion@iad-arts.be",
                "site_web": "https:\/\/www.mediadiffusion.eu\/",
                "statut_juridique": "asbl",
                "province": "Brabant wallon",
                "bassin_de_vie_fwb": "Brabant wallon",
                "categorie": "Atelier d'\u00e9cole",
                "bce": "0408.323.082",
                "commentaires": null
            }
        },
        {
            "type": "Feature",
            "geometry": {
                "type": "Point",
                "coordinates": [
                    4.342173882944168,
                    50.83358355318135
                ]
            },
            "properties": {
                "denomination": "SoundImageCulture (SIC)",
                "adresse": "Rue C\u00e9sar Depaepe 9",
                "code_postal": "1060",
                "ville": "Saint-Gilles",
                "telephone": null,
                "courriel": "soundimageculture@gmail.com",
                "site_web": "https:\/\/www.soundimageculture.org\/",
                "statut_juridique": "asbl",
                "province": "Bruxelles-Capitale",
                "bassin_de_vie_fwb": "Bruxelles",
                "categorie": "Atelier de production",
                "bce": "0898.898.406",
                "commentaires": null
            }
        },
        {
            "type": "Feature",
            "geometry": {
                "type": "Point",
                "coordinates": [
                    5.587388098144423,
                    50.64600544162888
                ]
            },
            "properties": {
                "denomination": "O'Brother Film Distribution",
                "adresse": "Quai Godefroid Kurth 10",
                "code_postal": "4020",
                "ville": "Li\u00e8ge",
                "telephone": "04 232 40 50",
                "courriel": "info@obrother.be",
                "site_web": "http:\/\/www.obrother.be\/",
                "statut_juridique": "sprl",
                "province": "Li\u00e8ge",
                "bassin_de_vie_fwb": "Li\u00e8ge",
                "categorie": "Distributeur de films",
                "bce": "0818.636.943",
                "commentaires": null
            }
        },
        {
            "type": "Feature",
            "geometry": {
                "type": "Point",
                "coordinates": [
                    4.324947137974825,
                    50.81876635792871
                ]
            },
            "properties": {
                "denomination": "Cin\u00e9cit\u00e9 scrl",
                "adresse": "Avenue Van volxem 172",
                "code_postal": "1190",
                "ville": "Forest",
                "telephone": null,
                "courriel": "clara@cinecite.coop",
                "site_web": "https:\/\/www.cinecite.coop",
                "statut_juridique": "scrl",
                "province": "Bruxelles-Capitale",
                "bassin_de_vie_fwb": "Bruxelles",
                "categorie": "Exploitant de salles",
                "bce": "0676.878.866",
                "commentaires": "Gestionnaire de La souveraine"
            }
        },
        {
            "type": "Feature",
            "geometry": {
                "type": "Point",
                "coordinates": [
                    4.344521284891428,
                    50.83155104984382
                ]
            },
            "properties": {
                "denomination": "Projecta asbl - Avila VOD",
                "adresse": "Chauss\u00e9e de Waterloo 37",
                "code_postal": "1060",
                "ville": "Saint-Gilles",
                "telephone": null,
                "courriel": "contact@avilafilm.be",
                "site_web": "https:\/\/avilafilm.be\/fr",
                "statut_juridique": "asbl",
                "province": "Bruxelles-Capitale",
                "bassin_de_vie_fwb": "Bruxelles",
                "categorie": "Diffusion num\u00e9rique",
                "bce": "0597.875.039",
                "commentaires": null
            }
        },
        {
            "type": "Feature",
            "geometry": {
                "type": "Point",
                "coordinates": [
                    4.360316211644322,
                    50.840047407096215
                ]
            },
            "properties": {
                "denomination": "Atelier de R\u00e9alisation et de Recherches Exp\u00e9rimentales Cin\u00e9ma-Vid\u00e9o (ARRECV)",
                "adresse": "Rue de Namur 54",
                "code_postal": "1000",
                "ville": "Bruxelles",
                "telephone": "02 549 01 89",
                "courriel": "atelier@insas.be",
                "site_web": "https:\/\/insas.be\/insas\/atelier-de-realisation\/",
                "statut_juridique": "asbl",
                "province": "Bruxelles-Capitale",
                "bassin_de_vie_fwb": "Bruxelles",
                "categorie": "Atelier d'\u00e9cole",
                "bce": "0414.916.411",
                "commentaires": null
            }
        },
        {
            "type": "Feature",
            "geometry": {
                "type": "Point",
                "coordinates": [
                    4.338114511779529,
                    50.840059107066295
                ]
            },
            "properties": {
                "denomination": "Atelier Jeunes Cin\u00e9astes (AJC!)",
                "adresse": "Rue de l'Autonomie 14",
                "code_postal": "1070",
                "ville": "Anderlecht",
                "telephone": "02 534 45 23",
                "courriel": "secretariat@ajcnet.be",
                "site_web": "https:\/\/ajcnet.be\/",
                "statut_juridique": "asbl",
                "province": "Bruxelles-Capitale",
                "bassin_de_vie_fwb": "Bruxelles",
                "categorie": "Atelier de production",
                "bce": "0417.953.994",
                "commentaires": null
            }
        },
        {
            "type": "Feature",
            "geometry": {
                "type": "Point",
                "coordinates": [
                    4.343437440614397,
                    50.83005568785094
                ]
            },
            "properties": {
                "denomination": "Le P'tit Cin\u00e9",
                "adresse": "Rue du Fort 5",
                "code_postal": "1060",
                "ville": "Saint-Gilles",
                "telephone": null,
                "courriel": "contact@leptitcine.be",
                "site_web": "https:\/\/www.festivalenville.be\/",
                "statut_juridique": "asbl",
                "province": "Bruxelles-Capitale",
                "bassin_de_vie_fwb": "Bruxelles",
                "categorie": "Organisateur de festival",
                "bce": "0451.955.761",
                "commentaires": "Organisateur du Festival En Ville !"
            }
        },
        {
            "type": "Feature",
            "geometry": {
                "type": "Point",
                "coordinates": [
                    4.369901584659918,
                    50.84693428809761
                ]
            },
            "properties": {
                "denomination": "Centre du Film sur l\u2019Art (CFA)",
                "adresse": "Avenue des Arts 19F",
                "code_postal": "1000",
                "ville": "Bruxelles",
                "telephone": "02 217 28 92",
                "courriel": "sarah@baffestival.be",
                "site_web": "http:\/\/www.baffestival.be\/",
                "statut_juridique": "asbl",
                "province": "Bruxelles-Capitale",
                "bassin_de_vie_fwb": "Bruxelles",
                "categorie": "Organisateur de festival",
                "bce": "0420.278.333",
                "commentaires": "Organisateur du Brussels Art Film Festival"
            }
        },
        {
            "type": "Feature",
            "geometry": {
                "type": "Point",
                "coordinates": [
                    4.353319298152076,
                    50.8428060489758
                ]
            },
            "properties": {
                "denomination": "Folioscope",
                "adresse": "Boulevard de l'Empereur 24",
                "code_postal": "1000",
                "ville": "Bruxelles",
                "telephone": "02 534 41 25",
                "courriel": "info@folioscope.be",
                "site_web": "https:\/\/animafestival.be\/fr",
                "statut_juridique": "asbl",
                "province": "Bruxelles-Capitale",
                "bassin_de_vie_fwb": "Bruxelles",
                "categorie": "Organisateur de festival",
                "bce": "0434.311.362",
                "commentaires": "Organisateur du Festival Anima"
            }
        },
        {
            "type": "Feature",
            "geometry": {
                "type": "Point",
                "coordinates": [
                    4.402631710985418,
                    50.82418759787399
                ]
            },
            "properties": {
                "denomination": "Universcin\u00e9 Belgium SA - SOONER",
                "adresse": "Place de l'amiti\u00e9 6",
                "code_postal": "1160",
                "ville": "Auderghem",
                "telephone": null,
                "courriel": "info@sooner,be",
                "site_web": "https:\/\/www.sooner.be",
                "statut_juridique": "sa",
                "province": "Bruxelles-Capitale",
                "bassin_de_vie_fwb": "Bruxelles",
                "categorie": "Plateforme de diffusion",
                "bce": "0821.741.636",
                "commentaires": "Gestionnaire de SOONER"
            }
        },
        {
            "type": "Feature",
            "geometry": {
                "type": "Point",
                "coordinates": [
                    4.379631469314997,
                    50.81164471960102
                ]
            },
            "properties": {
                "denomination": "Atelier de Production de la Cambre (ENSAV)",
                "adresse": "Avenue Franklin Roosevelt 27",
                "code_postal": "1050",
                "ville": "Ixelles",
                "telephone": null,
                "courriel": "atelier.prod.cambre@skynet.be",
                "site_web": "https:\/\/www.adifac.be\/",
                "statut_juridique": "asbl",
                "province": "Bruxelles-Capitale",
                "bassin_de_vie_fwb": "Bruxelles",
                "categorie": "Atelier d'\u00e9cole",
                "bce": "0421.697.602",
                "commentaires": null
            }
        },
        {
            "type": "Feature",
            "geometry": {
                "type": "Point",
                "coordinates": [
                    4.366287998152699,
                    50.85895711693044
                ]
            },
            "properties": {
                "denomination": "Cinemamed asbl",
                "adresse": "Rue Dupont 67",
                "code_postal": "1030",
                "ville": "Schaerbeek",
                "telephone": "02 800 80 04",
                "courriel": "info@cinemamed.be",
                "site_web": "https:\/\/www.cinemamed.be\/",
                "statut_juridique": "asbl",
                "province": "Bruxelles-Capitale",
                "bassin_de_vie_fwb": "Bruxelles",
                "categorie": "Organisateur de festival",
                "bce": "0862.398.096",
                "commentaires": null
            }
        },
        {
            "type": "Feature",
            "geometry": {
                "type": "Point",
                "coordinates": [
                    4.362899259996794,
                    50.83760030187339
                ]
            },
            "properties": {
                "denomination": "Art& Cin\u00e9ma asbl - Cin\u00e9ma Vend\u00f4me",
                "adresse": "Chauss\u00e9e de Wavre 18",
                "code_postal": "1050",
                "ville": "Ixelles",
                "telephone": "02 502 37 00",
                "courriel": "info@cinema-vendome.be",
                "site_web": "http:\/\/www.cinema-vendome.be\/",
                "statut_juridique": "asbl",
                "province": "Bruxelles-Capitale",
                "bassin_de_vie_fwb": "Bruxelles",
                "categorie": "Exploitant de salles",
                "bce": "0844.497.539",
                "commentaires": "Gestionnaire"
            }
        },
        {
            "type": "Feature",
            "geometry": {
                "type": "Point",
                "coordinates": [
                    4.338318413625601,
                    50.832186586513096
                ]
            },
            "properties": {
                "denomination": "Bah Voyons ! - Screenbox",
                "adresse": "Rue Coenarts 72",
                "code_postal": "1060",
                "ville": "Saint-Gilles",
                "telephone": null,
                "courriel": "severine.bahvoyons@gmail.com",
                "site_web": "www.bahvoyons.be",
                "statut_juridique": "asbl",
                "province": "Bruxelles-Capitale",
                "bassin_de_vie_fwb": "Bruxelles",
                "categorie": "Structure de diffusion",
                "bce": "0828.642.987",
                "commentaires": null
            }
        },
        {
            "type": "Feature",
            "geometry": {
                "type": "Point",
                "coordinates": [
                    3.953472398274617,
                    50.45549984244863
                ]
            },
            "properties": {
                "denomination": "Centre \u00e9ducatif et culturel cin\u00e9matographique Montois - Cin\u00e9ma Plaza Art",
                "adresse": "Rue de Nimy 12",
                "code_postal": "7000",
                "ville": "Mons",
                "telephone": "065 35 15 44",
                "courriel": "info.plaza.art@gmail.com",
                "site_web": "https:\/\/plaza-mons.be\/",
                "statut_juridique": "asbl",
                "province": "Hainaut",
                "bassin_de_vie_fwb": "Hainaut Centre",
                "categorie": "Exploitant de salles",
                "bce": "0452.781.152",
                "commentaires": "Cin\u00e9ma Plaza Arthouse Cinema"
            }
        },
        {
            "type": "Feature",
            "geometry": {
                "type": "Point",
                "coordinates": [
                    4.3545773846599065,
                    50.84731888703647
                ]
            },
            "properties": {
                "denomination": "Galeries",
                "adresse": "Galerie de la Reine 26",
                "code_postal": "1000",
                "ville": "Bruxelles",
                "telephone": "02 514 74 98",
                "courriel": "contact@galeries.be",
                "site_web": "https:\/\/www.galeries.be\/",
                "statut_juridique": "sa",
                "province": "Bruxelles-Capitale",
                "bassin_de_vie_fwb": "Bruxelles",
                "categorie": "Exploitant de salles",
                "bce": "0842.102.926",
                "commentaires": null
            }
        },
        {
            "type": "Feature",
            "geometry": {
                "type": "Point",
                "coordinates": [
                    4.377857282944088,
                    50.830491133458054
                ]
            },
            "properties": {
                "denomination": "Born 2 Be Cheap",
                "adresse": "Avenue de la Couronne 41",
                "code_postal": "1050",
                "ville": "Ixelles",
                "telephone": null,
                "courriel": "courtsmaistrash@yahoo.fr",
                "site_web": "http:\/\/www.screen-box.be\/",
                "statut_juridique": "asbl",
                "province": "Bruxelles-Capitale",
                "bassin_de_vie_fwb": "Bruxelles",
                "categorie": "Organisateur de festival",
                "bce": "0875.636.024",
                "commentaires": "Organisateur du Festival Courts Mais Trash"
            }
        },
        {
            "type": "Feature",
            "geometry": {
                "type": "Point",
                "coordinates": [
                    4.379156282943703,
                    50.816483407789605
                ]
            },
            "properties": {
                "denomination": "Agence belge du court m\u00e9trage",
                "adresse": "Avenue Maurice 1",
                "code_postal": "1050",
                "ville": "Ixelles",
                "telephone": null,
                "courriel": "nathalie@agenceducourt.be",
                "site_web": "https:\/\/www.agenceducourtmetrage.be\/",
                "statut_juridique": "asbl",
                "province": "Bruxelles-Capitale",
                "bassin_de_vie_fwb": "Bruxelles",
                "categorie": "Structure de diffusion",
                "bce": "0651.929.377",
                "commentaires": null
            }
        },
        {
            "type": "Feature",
            "geometry": {
                "type": "Point",
                "coordinates": [
                    4.352561142332714,
                    50.87408738337415
                ]
            },
            "properties": {
                "denomination": "Peymey Diffusion",
                "adresse": "Rue de la Comtesse de Flandre 8",
                "code_postal": "1020",
                "ville": "Laeken",
                "telephone": "02 201 17 13",
                "courriel": "info@bifff.net",
                "site_web": "https:\/\/www.bifff.net\/",
                "statut_juridique": "asbl",
                "province": "Bruxelles-Capitale",
                "bassin_de_vie_fwb": "Bruxelles",
                "categorie": "Organisateur de festival",
                "bce": "0419.261.714",
                "commentaires": "Organisateur du Brussels International Fantastic Film Festival"
            }
        },
        {
            "type": "Feature",
            "geometry": {
                "type": "Point",
                "coordinates": [
                    4.3644800539721205,
                    50.82955112610236
                ]
            },
            "properties": {
                "denomination": "Diog\u00e8ne asbl",
                "adresse": "Rue de la Vanne 2",
                "code_postal": "1050",
                "ville": "Ixelles",
                "telephone": "02 245 60 95",
                "courriel": "contact@festivalmillenium.org",
                "site_web": "https:\/\/www.festivalmillenium.org\/",
                "statut_juridique": "asbl",
                "province": "Bruxelles-Capitale",
                "bassin_de_vie_fwb": "Bruxelles",
                "categorie": "Organisateur de festival",
                "bce": "0438.214.029",
                "commentaires": "Organisateur du Festival Millenium"
            }
        },
        {
            "type": "Feature",
            "geometry": {
                "type": "Point",
                "coordinates": [
                    4.331596884660726,
                    50.868715644081306
                ]
            },
            "properties": {
                "denomination": "Marcel",
                "adresse": "Rue de Moranville 63",
                "code_postal": "1090",
                "ville": "Jette",
                "telephone": null,
                "courriel": "dirk@offscreen.be",
                "site_web": "https:\/\/www.offscreen.be\/",
                "statut_juridique": "asbl",
                "province": "Bruxelles-Capitale",
                "bassin_de_vie_fwb": "Bruxelles",
                "categorie": "Organisateur de festival",
                "bce": "0859.655.075",
                "commentaires": "Organisateur du Festival Offscreen"
            }
        },
        {
            "type": "Feature",
            "geometry": {
                "type": "Point",
                "coordinates": [
                    4.4411414827916165,
                    50.406221086311106
                ]
            },
            "properties": {
                "denomination": "Quai 10",
                "adresse": "Quai Arthur Rimbaud 10",
                "code_postal": "6000",
                "ville": "Charleroi",
                "telephone": "071 31 71 47",
                "courriel": "info@quai10.be",
                "site_web": "https:\/\/www.quai10.be\/",
                "statut_juridique": "asbl",
                "province": "Hainaut",
                "bassin_de_vie_fwb": "Hainaut Sud",
                "categorie": "Exploitant de salles",
                "bce": "0472.217.873",
                "commentaires": null
            }
        },
        {
            "type": "Feature",
            "geometry": {
                "type": "Point",
                "coordinates": [
                    5.650843269309008,
                    50.657655809577086
                ]
            },
            "properties": {
                "denomination": "Camera-etc",
                "adresse": "Rue de Vis\u00e9 490",
                "code_postal": "4020",
                "ville": "Li\u00e8ge",
                "telephone": "04 253 59 97",
                "courriel": "info@camera-etc.be",
                "site_web": "https:\/\/camera-etc.be\/fr\/",
                "statut_juridique": "asbl",
                "province": "Li\u00e8ge",
                "bassin_de_vie_fwb": "Li\u00e8ge",
                "categorie": "Atelier de production",
                "bce": "0421.894.075",
                "commentaires": null
            }
        },
        {
            "type": "Feature",
            "geometry": {
                "type": "Point",
                "coordinates": [
                    5.58607561348746,
                    50.63274420411387
                ]
            },
            "properties": {
                "denomination": "Wallonie Image Production (WIP)",
                "adresse": "Rue de Mulhouse 36",
                "code_postal": "4020",
                "ville": "Li\u00e8ge",
                "telephone": "04 340 10 40",
                "courriel": "info@wip.be",
                "site_web": "https:\/\/www.wip.be\/",
                "statut_juridique": "asbl",
                "province": "Li\u00e8ge",
                "bassin_de_vie_fwb": "Li\u00e8ge",
                "categorie": "Atelier d'accueil",
                "bce": "0431.001.682",
                "commentaires": null
            }
        },
        {
            "type": "Feature",
            "geometry": {
                "type": "Point",
                "coordinates": [
                    4.333403584659063,
                    50.825336411370934
                ]
            },
            "properties": {
                "denomination": "Les Ateliers de Productions Audiovisuelles Coop\u00e9ratifs de la Haute Ecole Libre de Bruxelles (A.P.A.C.H)",
                "adresse": "Rue du Croissant 136",
                "code_postal": "1190",
                "ville": "Forest",
                "telephone": "02 346 07 52",
                "courriel": "info@apach-helb.be",
                "site_web": "https:\/\/www.apach-helb.be\/",
                "statut_juridique": "asbl",
                "province": "Bruxelles-Capitale",
                "bassin_de_vie_fwb": "Bruxelles",
                "categorie": "Atelier d'\u00e9cole",
                "bce": "0443.293.760",
                "commentaires": null
            }
        },
        {
            "type": "Feature",
            "geometry": {
                "type": "Point",
                "coordinates": [
                    5.573725184651889,
                    50.64024483281379
                ]
            },
            "properties": {
                "denomination": "Les Grignoux - Le Parc Distribution",
                "adresse": "Rue S\u0153urs de Hasque 9",
                "code_postal": "4000",
                "ville": "Li\u00e8ge",
                "telephone": "04 222 27 78",
                "courriel": "dist@grignoux.be",
                "site_web": "http:\/\/www.leparcdistribution.be\/",
                "statut_juridique": "filiale",
                "province": "Li\u00e8ge",
                "bassin_de_vie_fwb": "Li\u00e8ge",
                "categorie": "Distributeur de films",
                "bce": "2.154.958.730",
                "commentaires": null
            }
        }
    ]
}